[{"OBJECT_NAME":"MESON-1","OBJECT_ID":"2024-043AK","EPOCH":"2026-03-09T21:36:16.481664","MEAN_MOTION":15.29893494,"ECCENTRICITY":0.00095452,"INCLINATION":97.5469,"RA_OF_ASC_NODE":205.2839,"ARG_OF_PERICENTER":227.1432,"MEAN_ANOMALY":132.9007,"EPHEMERIS_TYPE":0,"CLASSIFICATION_TYPE":"U","NORAD_CAT_ID":59131,"ELEMENT_SET_NO":999,"REV_AT_EPOCH":11189,"BSTAR":0.0002974823,"MEAN_MOTION_DOT":8.544e-5,"MEAN_MOTION_DDOT":0},{"OBJECT_NAME":"STARLINK-32207","OBJECT_ID":"2024-131E","EPOCH":"2026-03-09T22:31:55.363872","MEAN_MOTION":15.30186094,"ECCENTRICITY":0.00012082,"INCLINATION":53.1611,"RA_OF_ASC_NODE":51.5073,"ARG_OF_PERICENTER":91.7757,"MEAN_ANOMALY":268.3382,"EPHEMERIS_TYPE":0,"CLASSIFICATION_TYPE":"U","NORAD_CAT_ID":60259,"ELEMENT_SET_NO":999,"REV_AT_EPOCH":9175,"BSTAR":7.90079e-6,"MEAN_MOTION_DOT":-1.25e-6,"MEAN_MOTION_DDOT":0}]
